HODOYOSHI-4             
1 40011U 14033B   26193.18141895  .00000358  00000+0  44400-4 0  9996
2 40011  97.5458  16.7992 0022483 220.1706 139.7850 14.88182077652526
DEIMOS-2                
1 40013U 14033D   26193.16923288  .00000287  00000+0  32148-4 0  9997
2 40013  97.5804  66.7775 0000917  84.9920 275.1405 14.93790047641458
HODOYOSHI-3             
1 40015U 14033F   26192.90713409  .00000537  00000+0  67894-4 0  9996
2 40015  97.6441 354.9565 0031297 273.2549  86.5086 14.85433515651299
SPOT 7                  
1 40053U 14034A   26193.17989073  .00000026  00000+0  14580-4 0  9998
2 40053  98.0623 255.0261 0001564  97.0740 263.0639 14.60978805640788
SKYSAT-B                
1 40072U 14037D   26192.87034045  .00000667  00000+0  79264-4 0  9999
2 40072  98.3853 153.2453 0005309 183.3680 176.7500 14.88087332649638
WORLDVIEW-3 (WV-3)      
1 40115U 14048A   26193.16513045  .00000400  00000+0  53119-4 0  9990
2 40115  97.8557 267.6525 0001067 160.4981 199.6275 14.85061333645615
GAOFEN-2                
1 40118U 14049A   26193.17616472 -.00000358  00000+0 -39414-4 0  9999
2 40118  98.0104 257.3581 0008054 143.2413 216.9352 14.80923484642939
YAOGAN-21               
1 40143U 14053A   26193.20240308  .00003134  00000+0  12178-3 0  9997
2 40143  97.1466 232.3678 0008126  18.6974 341.4562 15.26732434658775
YAOGAN-22               
1 40275U 14063A   26192.52202174 -.00000019  00000+0  74490-4 0  9993
2 40275 100.7756 344.2025 0006805 132.8949 227.2735 13.15531599563016
ASNARO                  
1 40298U 14070A   26193.18156750  .00005159  00000+0  24390-3 0  9999
2 40298  97.3453 268.6234 0006925  97.3277 262.8745 15.19802930647801
YAOGAN-24               
1 40310U 14072A   26193.23031225  .00000435  00000+0  70645-4 0  9998
2 40310  98.1513 330.7813 0014362 178.9322 181.1920 14.76116812627419
CBERS 4                 
1 40336U 14079A   26193.19955479 -.00000036  00000+0  23321-5 0  9992
2 40336  98.3525 249.2448 0000903  52.3339 307.7929 14.35515311607548
YAOGAN-26               
1 40362U 14088A   26193.15238897  .00012940  00000+0  24612-3 0  9993
2 40362  97.0643 192.7939 0002364 358.7564   1.3681 15.48357918641561
SMAP                    
1 40376U 15003A   26193.17382833  .00000217  00000+0  51108-4 0  9993
2 40376  98.1282 199.9150 0001576  95.9601 264.1780 14.63387617611276
KOMPSAT-3A              
1 40536U 15014A   26193.15166095  .00021313  00000+0  29396-3 0  9994
2 40536  97.6886 186.3631 0056537  86.3036 274.4680 15.55297135625696
SENTINEL-2A             
1 40697U 15028A   26193.17972472 -.00000034  00000+0  34852-5 0  9996
2 40697  98.5681 267.6755 0001264  95.9421 264.1906 14.30813654577301
GAOFEN-8                
1 40701U 15030A   26193.19447259  .00008833  00000+0  17745-3 0  9991
2 40701  97.6899  28.0813 0009980 105.1946 255.0407 15.46863014615313
CARBONITE 1 (CBNT-1)    
1 40718U 15032D   26193.13678444  .00001250  00000+0  15730-3 0  9995
2 40718  97.6519  10.1612 0013527 207.5964 152.4534 14.83663982593046
YAOGAN-27               
1 40878U 15040A   26193.19144344 -.00000218  00000+0 -46128-3 0  9994
2 40878 100.1162 178.4900 0008464 151.8001 208.3573 13.16070265520957
GAOFEN-9 01             
1 40894U 15047A   26193.23134742  .00000545  00000+0  72988-4 0  9990
2 40894  97.6271 227.7872 0028615  59.7840 300.6202 14.82931693583903
YAOGAN-28               
1 41026U 15064A   26193.21477170  .00004143  00000+0  15529-3 0  9995
2 41026  97.3099 330.9755 0012068 102.1455 258.1137 15.27735804594501
YAOGAN-29               
1 41038U 15069A   26193.20829937 -.00000267  00000+0 -26192-4 0  9998
2 41038  98.0028 221.8795 0001005  16.0534 344.0710 14.83103708574330
KENT RIDGE 1            
1 41167U 15077B   26192.91586750  .00002707  00000+0  79609-4 0  9990
2 41167  14.9799  82.0545 0008276 228.7650 131.1958 15.23273349584876
GAOFEN-4                
1 41194U 15083A   26193.01356774 -.00000331  00000+0  00000+0 0  9996
2 41194   0.4178  83.8475 0004488 121.3364 195.2915  1.00268468 38772
JASON-3                 
1 41240U 16002A   26193.16781023 -.00000035  00000+0  10857-3 0  9991
2 41240  66.0416  73.3174 0008210 271.2000  88.8078 12.87628497490460
SENTINEL-3A             
1 41335U 16011A   26193.18279750  .00000040  00000+0  34449-4 0  9996
2 41335  98.6238 260.2061 0001377  90.9952 269.1386 14.26739229541621
ZIYUAN 3-02 (ZY 3-02)   
1 41556U 16033A   26193.18419234  .00003262  00000+0  14808-3 0  9993
2 41556  97.3831 268.4777 0013744 195.5712 164.5103 15.21416536561785
CARTOSAT-2C             
1 41599U 16040A   26193.15491096  .00002866  00000+0  13908-3 0  9990
2 41599  97.4481 252.7872 0009770  54.8769 305.3380 15.19251685557505
SKYSAT-C1               
1 41601U 16040C   26192.63835800  .00005514  00000+0  15589-3 0  9991
2 41601  96.9557 223.0369 0000645 355.4804   4.6435 15.36708815561620
LAPAN-A3                
1 41603U 16040E   26193.18804831  .00002027  00000+0  65348-4 0  9999
2 41603  97.1497 188.5160 0008262 289.2378  70.7971 15.33266226558644
GAOFEN-3                
1 41727U 16049A   26193.19879515  .00000108  00000+0  46018-4 0  9998
2 41727  98.4018 200.6071 0001801  87.2667 272.8729 14.42218790522256
