OBJECT_NAME,OBJECT_ID,EPOCH,MEAN_MOTION,ECCENTRICITY,INCLINATION,RA_OF_ASC_NODE,ARG_OF_PERICENTER,MEAN_ANOMALY,EPHEMERIS_TYPE,CLASSIFICATION_TYPE,NORAD_CAT_ID,ELEMENT_SET_NO,REV_AT_EPOCH,BSTAR,MEAN_MOTION_DOT,MEAN_MOTION_DDOT
HODOYOSHI-4,2014-033B,2026-07-12T04:21:14.597280,14.88182077,.0022483,97.5458,16.7992,220.1706,139.7850,0,U,40011,999,65252,.444E-4,.358E-5,0
DEIMOS-2,2014-033D,2026-07-12T04:03:41.720832,14.93790047,.0000917,97.5804,66.7775,84.9920,275.1405,0,U,40013,999,64145,.32148E-4,.287E-5,0
HODOYOSHI-3,2014-033F,2026-07-11T21:46:16.385376,14.85433515,.0031297,97.6441,354.9565,273.2549,86.5086,0,U,40015,999,65129,.67894E-4,.537E-5,0
SPOT 7,2014-034A,2026-07-12T04:19:02.559072,14.60978805,.0001564,98.0623,255.0261,97.0740,263.0639,0,U,40053,999,64078,.1458E-4,.26E-6,0
SKYSAT-B,2014-037D,2026-07-11T20:53:17.414880,14.88087332,.00053095,98.3853,153.2453,183.3680,176.7500,0,U,40072,999,64963,.79264116E-4,.667E-5,0
WORLDVIEW-3 (WV-3),2014-048A,2026-07-12T03:57:47.270880,14.85061333,.0001067,97.8557,267.6525,160.4981,199.6275,0,U,40115,999,64561,.53119E-4,.4E-5,0
GAOFEN-2,2014-049A,2026-07-12T04:13:40.631808,14.80923484,.0008054,98.0104,257.3581,143.2413,216.9352,0,U,40118,999,64293,-.39414E-4,-.358E-5,0
YAOGAN-21,2014-053A,2026-07-12T04:51:27.626112,15.26732434,.0008126,97.1466,232.3678,18.6974,341.4562,0,U,40143,999,65877,.12178E-3,.3134E-4,0
YAOGAN-22,2014-063A,2026-07-11T12:31:42.678336,13.15531599,.00068057,100.7756,344.2025,132.8949,227.2735,0,U,40275,999,56301,.74489854E-4,-.19E-6,0
ASNARO,2014-070A,2026-07-12T04:21:27.432000,15.19802930,.0006925,97.3453,268.6234,97.3277,262.8745,0,U,40298,999,64780,.2439E-3,.5159E-4,0
YAOGAN-24,2014-072A,2026-07-12T05:31:38.978400,14.76116812,.0014362,98.1513,330.7813,178.9322,181.1920,0,U,40310,999,62741,.70645E-4,.435E-5,0
CBERS 4,2014-079A,2026-07-12T04:47:21.533856,14.35515311,.0000903,98.3525,249.2448,52.3339,307.7929,0,U,40336,999,60754,.23321E-5,-.36E-6,0
YAOGAN-26,2014-088A,2026-07-12T03:39:26.407008,15.48357918,.0002364,97.0643,192.7939,358.7564,1.3681,0,U,40362,999,64156,.24612E-3,.1294E-3,0
SMAP,2015-003A,2026-07-12T04:10:18.767712,14.63387617,.0001576,98.1282,199.9150,95.9601,264.1780,0,U,40376,999,61127,.51108E-4,.217E-5,0
KOMPSAT-3A,2015-014A,2026-07-12T03:38:23.506080,15.55297135,.0056537,97.6886,186.3631,86.3036,274.4680,0,U,40536,999,62569,.29396E-3,.21313E-3,0
SENTINEL-2A,2015-028A,2026-07-12T04:18:48.215808,14.30813654,.0001264,98.5681,267.6755,95.9421,264.1906,0,U,40697,999,57730,.34852E-5,-.34E-6,0
GAOFEN-8,2015-030A,2026-07-12T04:40:02.431776,15.46863014,.000998,97.6899,28.0813,105.1946,255.0407,0,U,40701,999,61531,.17745E-3,.8833E-4,0
CARBONITE 1 (CBNT-1),2015-032D,2026-07-12T03:16:58.175616,14.83663982,.0013527,97.6519,10.1612,207.5964,152.4534,0,U,40718,999,59304,.1573E-3,.125E-4,0
YAOGAN-27,2015-040A,2026-07-12T04:35:40.713216,13.16070265,.0008464,100.1162,178.4900,151.8001,208.3573,0,U,40878,999,52095,-.46128E-3,-.218E-5,0
GAOFEN-9 01,2015-047A,2026-07-12T05:33:08.417088,14.82931693,.0028615,97.6271,227.7872,59.7840,300.6202,0,U,40894,999,58390,.72988E-4,.545E-5,0
YAOGAN-28,2015-064A,2026-07-12T05:09:16.274880,15.27735804,.0012068,97.3099,330.9755,102.1455,258.1137,0,U,41026,999,59450,.15529E-3,.4143E-4,0
YAOGAN-29,2015-069A,2026-07-12T04:59:57.065568,14.83103708,.0001005,98.0028,221.8795,16.0534,344.0710,0,U,41038,999,57433,-.26192E-4,-.267E-5,0
KENT RIDGE 1,2015-077B,2026-07-11T21:58:50.952000,15.23273349,.0008276,14.9799,82.0545,228.7650,131.1958,0,U,41167,999,58487,.79609E-4,.2707E-4,0
GAOFEN-4,2015-083A,2026-07-12T00:19:32.252736,1.00268468,.0004488,0.4178,83.8475,121.3364,195.2915,0,U,41194,999,3877,0,-.331E-5,0
JASON-3,2016-002A,2026-07-12T04:01:38.803872,12.87628497,.000821,66.0416,73.3174,271.2000,88.8078,0,U,41240,999,49046,.10857E-3,-.35E-6,0
SENTINEL-3A,2016-011A,2026-07-12T04:23:13.704000,14.26739229,.0001377,98.6238,260.2061,90.9952,269.1386,0,U,41335,999,54162,.34449E-4,.4E-6,0
ZIYUAN 3-02 (ZY 3-02),2016-033A,2026-07-12T04:25:14.218176,15.21416536,.0013744,97.3831,268.4777,195.5712,164.5103,0,U,41556,999,56178,.14808E-3,.3262E-4,0
CARTOSAT-2C,2016-040A,2026-07-12T03:43:04.306944,15.19251685,.000977,97.4481,252.7872,54.8769,305.3380,0,U,41599,999,55750,.13908E-3,.2866E-4,0
SKYSAT-C1,2016-040C,2026-07-11T15:19:14.131200,15.36708815,.0000645,96.9557,223.0369,355.4804,4.6435,0,U,41601,999,56162,.15588995E-3,.5514E-4,0
LAPAN-A3,2016-040E,2026-07-12T04:30:47.373984,15.33266226,.0008262,97.1497,188.5160,289.2378,70.7971,0,U,41603,999,55864,.65348E-4,.2027E-4,0
GAOFEN-3,2016-049A,2026-07-12T04:46:15.900960,14.42218790,.0001801,98.4018,200.6071,87.2667,272.8729,0,U,41727,999,52225,.46018E-4,.108E-5,0
